start=new Date('2023-07-01T00:00:00.000Z').valueOf();
sats=[{"PERIOD":"91.638","INCLINATION":"42.9975","MEAN_MOTION":"15.71399412","MEAN_MOTION_DDOT":"0.0000000000000","OBJECT_TYPE":"PAYLOAD","PERIAPSIS":"353.624","MEAN_ANOMALY":"86.5618","SITE":"AFETR","FILE":"3945807","EPOCH":"2023-06-29T14:38:49.036128","TLE_LINE2":"2 55713  42.9975 270.4695 0001893 273.5033  86.5618 15.71399412 20150","MEAN_MOTION_DOT":"0.00017505","NORAD_CAT_ID":"55713","TIME_SYSTEM":"UTC","CENTER_NAME":"EARTH","ECCENTRICITY":"0.00018930","EPHEMERIS_TYPE":"0","ARG_OF_PERICENTER":"273.5033","TLE_LINE1":"1 55713U 23026U   23180.61028977  .00017505  00000-0  13640-3 0  9993","LAUNCH_DATE":"2023-02-27","OBJECT_NAME":"STARLINK-30063","SEMIMAJOR_AXIS":"6733.034","GP_ID":"234626449","DECAY_DATE":null,"ELEMENT_SET_NO":"999","REF_FRAME":"TEME","APOAPSIS":"356.173","MEAN_ELEMENT_THEORY":"SGP4","RA_OF_ASC_NODE":"270.4695","CLASSIFICATION_TYPE":"U","RCS_SIZE":"LARGE","REV_AT_EPOCH":"2015","BSTAR":"0.00013640000000","OBJECT_ID":"2023-026U","COUNTRY_CODE":"US"},{"PERIOD":"91.640","OBJECT_TYPE":"PAYLOAD","INCLINATION":"43.0009","MEAN_MOTION":"15.71368517","MEAN_MOTION_DDOT":"0.0000000000000","PERIAPSIS":"353.965","MEAN_ANOMALY":"50.6902","FILE":"3946057","SITE":"AFETR","MEAN_MOTION_DOT":"0.00000870","NORAD_CAT_ID":"55714","EPOCH":"2023-06-30T13:35:41.876160","TLE_LINE2":"2 55714  43.0009 265.6309 0001518 309.3831  50.6902 15.71368517 20292","ARG_OF_PERICENTER":"309.3831","TLE_LINE1":"1 55714U 23026V   23181.56645690  .00000870  00000-0  10076-4 0  9994","TIME_SYSTEM":"UTC","CENTER_NAME":"EARTH","EPHEMERIS_TYPE":"0","ECCENTRICITY":"0.00015180","OBJECT_NAME":"STARLINK-30059","LAUNCH_DATE":"2023-02-27","SEMIMAJOR_AXIS":"6733.122","GP_ID":"234632870","DECAY_DATE":null,"REF_FRAME":"TEME","APOAPSIS":"356.009","ELEMENT_SET_NO":"999","MEAN_ELEMENT_THEORY":"SGP4","RA_OF_ASC_NODE":"265.6309","CLASSIFICATION_TYPE":"U","RCS_SIZE":"LARGE","REV_AT_EPOCH":"2029","COUNTRY_CODE":"US","BSTAR":"0.00001007600000","OBJECT_ID":"2023-026V"},{"APOAPSIS":"574.743","REF_FRAME":"TEME","ELEMENT_SET_NO":"999","MEAN_ELEMENT_THEORY":"SGP4","OBJECT_NAME":"STARLINK-5592","LAUNCH_DATE":"2023-03-03","DECAY_DATE":null,"GP_ID":"234633136","SEMIMAJOR_AXIS":"6950.178","REV_AT_EPOCH":"1875","RCS_SIZE":"LARGE","COUNTRY_CODE":"US","OBJECT_ID":"2023-028A","BSTAR":"0.00003910900000","RA_OF_ASC_NODE":"203.5547","CLASSIFICATION_TYPE":"U","PERIOD":"96.107","OBJECT_TYPE":"PAYLOAD","MEAN_MOTION_DDOT":"0.0000000000000","INCLINATION":"69.9982","MEAN_MOTION":"14.98334679","NORAD_CAT_ID":"55741","MEAN_MOTION_DOT":"0.00000374","TLE_LINE2":"2 55741  69.9982 203.5547 0003884 268.6073  91.4641 14.98334679 18758","EPOCH":"2023-06-30T11:41:43.474272","TLE_LINE1":"1 55741U 23028A   23181.48730873  .00000374  00000-0  39109-4 0  9992","ARG_OF_PERICENTER":"268.6073","EPHEMERIS_TYPE":"0","ECCENTRICITY":"0.00038840","CENTER_NAME":"EARTH","TIME_SYSTEM":"UTC","MEAN_ANOMALY":"91.4641","PERIAPSIS":"569.344","FILE":"3946063","SITE":"AFWTR"},{"CLASSIFICATION_TYPE":"U","RA_OF_ASC_NODE":"203.5791","COUNTRY_CODE":"US","OBJECT_ID":"2023-028B","BSTAR":"0.00004587100000","RCS_SIZE":"LARGE","REV_AT_EPOCH":"1876","SEMIMAJOR_AXIS":"6950.178","GP_ID":"234632966","DECAY_DATE":null,"OBJECT_NAME":"STARLINK-5594","LAUNCH_DATE":"2023-03-03","MEAN_ELEMENT_THEORY":"SGP4","APOAPSIS":"574.733","REF_FRAME":"TEME","ELEMENT_SET_NO":"999","FILE":"3946067","SITE":"AFWTR","MEAN_ANOMALY":"92.0077","PERIAPSIS":"569.352","TLE_LINE1":"1 55742U 23028B   23181.49549062  .00000454  00000-0  45871-4 0  9994","ARG_OF_PERICENTER":"268.0639","ECCENTRICITY":"0.00038710","EPHEMERIS_TYPE":"0","TIME_SYSTEM":"UTC","CENTER_NAME":"EARTH","NORAD_CAT_ID":"55742","MEAN_MOTION_DOT":"0.00000454","TLE_LINE2":"2 55742  69.9981 203.5791 0003871 268.0639  92.0077 14.98334913 18769","EPOCH":"2023-06-30T11:53:30.389568","OBJECT_TYPE":"PAYLOAD","MEAN_MOTION_DDOT":"0.0000000000000","MEAN_MOTION":"14.98334913","INCLINATION":"69.9981","PERIOD":"96.107"},{"OBJECT_TYPE":"PAYLOAD","MEAN_MOTION_DDOT":"0.0000000000000","INCLINATION":"69.9987","MEAN_MOTION":"14.98329835","PERIOD":"96.107","TLE_LINE1":"1 55743U 23028C   23180.09771088  .00000157  00000-0  20935-4 0  9999","ARG_OF_PERICENTER":"267.1384","ECCENTRICITY":"0.00037260","EPHEMERIS_TYPE":"0","CENTER_NAME":"EARTH","TIME_SYSTEM":"UTC","NORAD_CAT_ID":"55743","MEAN_MOTION_DOT":"0.00000157","TLE_LINE2":"2 55743  69.9987 207.1277 0003726 267.1384  92.9349 14.98329835 18556","EPOCH":"2023-06-29T02:20:42.220032","FILE":"3945290","SITE":"AFWTR","MEAN_ANOMALY":"92.9349","PERIAPSIS":"569.469","MEAN_ELEMENT_THEORY":"SGP4","APOAPSIS":"574.648","REF_FRAME":"TEME","ELEMENT_SET_NO":"999","DECAY_DATE":null,"GP_ID":"234613406","SEMIMAJOR_AXIS":"6950.193","OBJECT_NAME":"STARLINK-5602","LAUNCH_DATE":"2023-03-03","COUNTRY_CODE":"US","OBJECT_ID":"2023-028C","BSTAR":"0.00002093500000","REV_AT_EPOCH":"1855","RCS_SIZE":"LARGE","CLASSIFICATION_TYPE":"U","RA_OF_ASC_NODE":"207.1277"},{"TIME_SYSTEM":"UTC","CENTER_NAME":"EARTH","ECCENTRICITY":"0.00036160","EPHEMERIS_TYPE":"0","ARG_OF_PERICENTER":"268.7917","TLE_LINE1":"1 55744U 23028D   23181.49131698  .00000649  00000-0  62194-4 0  9991","EPOCH":"2023-06-30T11:47:29.787072","TLE_LINE2":"2 55744  69.9981 203.5686 0003616 268.7917  91.2828 14.98335310 18764","MEAN_MOTION_DOT":"0.00000649","NORAD_CAT_ID":"55744","SITE":"AFWTR","FILE":"3946059","PERIAPSIS":"569.528","MEAN_ANOMALY":"91.2828","INCLINATION":"69.9981","MEAN_MOTION":"14.98335310","MEAN_MOTION_DDOT":"0.0000000000000","OBJECT_TYPE":"PAYLOAD","PERIOD":"96.107","BSTAR":"0.00006219400000","OBJECT_ID":"2023-028D","COUNTRY_CODE":"US","REV_AT_EPOCH":"1876","RCS_SIZE":"LARGE","CLASSIFICATION_TYPE":"U","RA_OF_ASC_NODE":"203.5686","MEAN_ELEMENT_THEORY":"SGP4","ELEMENT_SET_NO":"999","REF_FRAME":"TEME","APOAPSIS":"574.555","GP_ID":"234633077","DECAY_DATE":null,"SEMIMAJOR_AXIS":"6950.176","LAUNCH_DATE":"2023-03-03","OBJECT_NAME":"STARLINK-5601"},{"SEMIMAJOR_AXIS":"6950.207","GP_ID":"234633084","DECAY_DATE":null,"LAUNCH_DATE":"2023-03-03","OBJECT_NAME":"STARLINK-5565","MEAN_ELEMENT_THEORY":"SGP4","ELEMENT_SET_NO":"999","APOAPSIS":"574.859","REF_FRAME":"TEME","CLASSIFICATION_TYPE":"U","RA_OF_ASC_NODE":"203.6074","OBJECT_ID":"2023-028E","BSTAR":"-0.00005687500000","COUNTRY_CODE":"US","RCS_SIZE":"LARGE","REV_AT_EPOCH":"1876","MEAN_MOTION_DDOT":"0.0000000000000","INCLINATION":"69.9987","MEAN_MOTION":"14.98325382","OBJECT_TYPE":"PAYLOAD","PERIOD":"96.107","SITE":"AFWTR","FILE":"3946059","MEAN_ANOMALY":"88.3362","PERIAPSIS":"569.286","EPHEMERIS_TYPE":"0","ECCENTRICITY":"0.00040090","TIME_SYSTEM":"UTC","CENTER_NAME":"EARTH","TLE_LINE1":"1 55745U 23028E   23181.50384889 -.00000772  00000-0 -56875-4 0  9994","ARG_OF_PERICENTER":"271.7337","TLE_LINE2":"2 55745  69.9987 203.6074 0004009 271.7337  88.3362 14.98325382 18768","EPOCH":"2023-06-30T12:05:32.544096","NORAD_CAT_ID":"55745","MEAN_MOTION_DOT":"-0.00000772"},{"FILE":"3946059","SITE":"AFWTR","MEAN_ANOMALY":"91.4838","PERIAPSIS":"569.287","TLE_LINE1":"1 55746U 23028F   23181.46627566 -.00000179  00000-0 -71965-5 0  9991","ARG_OF_PERICENTER":"268.5865","EPHEMERIS_TYPE":"0","ECCENTRICITY":"0.00039830","CENTER_NAME":"EARTH","TIME_SYSTEM":"UTC","NORAD_CAT_ID":"55746","MEAN_MOTION_DOT":"-0.00000179","TLE_LINE2":"2 55746  69.9988 203.4835 0003983 268.5865  91.4838 14.98330783 18767","EPOCH":"2023-06-30T11:11:26.217024","OBJECT_TYPE":"PAYLOAD","MEAN_MOTION_DDOT":"0.0000000000000","INCLINATION":"69.9988","MEAN_MOTION":"14.98330783","PERIOD":"96.107","CLASSIFICATION_TYPE":"U","RA_OF_ASC_NODE":"203.4835","COUNTRY_CODE":"US","OBJECT_ID":"2023-028F","BSTAR":"-0.00000719650000","RCS_SIZE":"LARGE","REV_AT_EPOCH":"1876","GP_ID":"234632898","DECAY_DATE":null,"SEMIMAJOR_AXIS":"6950.190","OBJECT_NAME":"STARLINK-5579","LAUNCH_DATE":"2023-03-03","MEAN_ELEMENT_THEORY":"SGP4","APOAPSIS":"574.824","REF_FRAME":"TEME","ELEMENT_SET_NO":"999"},{"PERIOD":"96.107","OBJECT_TYPE":"PAYLOAD","MEAN_MOTION":"14.98329389","INCLINATION":"69.9984","MEAN_MOTION_DDOT":"0.0000000000000","MEAN_MOTION_DOT":"0.00000096","NORAD_CAT_ID":"55747","EPOCH":"2023-06-28T19:32:07.448640","TLE_LINE2":"2 55747  69.9984 207.7467 0003987 268.0247  92.0455 14.98329389 18510","ARG_OF_PERICENTER":"268.0247","TLE_LINE1":"1 55747U 23028G   23179.81397510  .00000096  00000-0  15890-4 0  9991","CENTER_NAME":"EARTH","TIME_SYSTEM":"UTC","ECCENTRICITY":"0.00039870","EPHEMERIS_TYPE":"0","PERIAPSIS":"569.289","MEAN_ANOMALY":"92.0455","FILE":"3945278","SITE":"AFWTR","REF_FRAME":"TEME","APOAPSIS":"574.831","ELEMENT_SET_NO":"999","MEAN_ELEMENT_THEORY":"SGP4","OBJECT_NAME":"STARLINK-5539","LAUNCH_DATE":"2023-03-03","GP_ID":"234613728","SEMIMAJOR_AXIS":"6950.195","DECAY_DATE":null,"RCS_SIZE":"LARGE","REV_AT_EPOCH":"1851","COUNTRY_CODE":"US","BSTAR":"0.00001589000000","OBJECT_ID":"2023-028G","RA_OF_ASC_NODE":"207.7467","CLASSIFICATION_TYPE":"U"},{"TLE_LINE1":"1 55748U 23028H   23181.47879681  .00000307  00000-0  33568-4 0  9998","ARG_OF_PERICENTER":"268.5175","ECCENTRICITY":"0.00040090","EPHEMERIS_TYPE":"0","CENTER_NAME":"EARTH","TIME_SYSTEM":"UTC","NORAD_CAT_ID":"55748","MEAN_MOTION_DOT":"0.00000307","TLE_LINE2":"2 55748  69.9983 203.5240 0004009 268.5175  91.5524 14.98333239 18761","EPOCH":"2023-06-30T11:29:28.044384","FILE":"3946060","SITE":"AFWTR","MEAN_ANOMALY":"91.5524","PERIAPSIS":"569.262","OBJECT_TYPE":"PAYLOAD","MEAN_MOTION_DDOT":"0.0000000000000","MEAN_MOTION":"14.98333239","INCLINATION":"69.9983","PERIOD":"96.107","COUNTRY_CODE":"US","OBJECT_ID":"2023-028H","BSTAR":"0.00003356800000","REV_AT_EPOCH":"1876","RCS_SIZE":"LARGE","CLASSIFICATION_TYPE":"U","RA_OF_ASC_NODE":"203.5240","MEAN_ELEMENT_THEORY":"SGP4","APOAPSIS":"574.834","REF_FRAME":"TEME","ELEMENT_SET_NO":"999","DECAY_DATE":null,"GP_ID":"234633089","SEMIMAJOR_AXIS":"6950.183","OBJECT_NAME":"STARLINK-5580","LAUNCH_DATE":"2023-03-03"}];
